STARLINK-3589           
1 51997U 22025AT  22079.91668981 -.00873421  00000+0 -64320-2 0  9993
2 51997  53.2172  83.5319 0000984  77.5729 328.2474 15.74803272  2001
STARLINK-3618           
1 51998U 22025AU  22079.91668981 -.00874070  00000+0 -64090-2 0  9999
2 51998  53.2172  83.5263 0001038  65.1306 343.5703 15.74903146  2001
STARLINK-3667           
1 51999U 22025AV  22079.91668981 -.00874076  00000+0 -64142-2 0  9994
2 51999  53.2172  83.5272 0001072  61.4645 346.6576 15.74884543  2006
STARLINK-3653           
1 52000U 22025AW  22079.91668981 -.00874117  00000+0 -63985-2 0  9998
2 52000  53.2172  83.5240 0001004  69.9716 339.8794 15.74942123  2007
STARLINK-3659           
1 52001U 22025AX  22079.91668981 -.00874091  00000+0 -64034-2 0  9996
2 52001  53.2172  83.5248 0001048  62.6659 346.6074 15.74923570  2002
STARLINK-3668           
1 52002U 22025AY  22079.91668981 -.00874142  00000+0 -63929-2 0  9996
2 52002  53.2172  83.5230 0001003  68.8292 341.5918 15.74962789  2002
STARLINK-3654           
1 52003U 22025AZ  22079.91668981 -.00874160  00000+0 -63890-2 0  9994
2 52003  53.2171  83.5214 0001108  55.1907 355.8237 15.74976268  2001
FALCON 9 DEB            
1 52004U 22025BA  22079.87355212  .00171460  21896-4  54296-3 0  9993
2 52004  53.2271  83.3594 0005646 281.6157  78.4237 15.90928353  1968
FALCON 9 DEB            
1 52005U 22025BB  22079.87050848  .00197329  25534-4  60405-3 0  9995
2 52005  53.2250  83.3362 0005645 257.0066 103.0332 15.91536358  1966
FALCON 9 DEB            
1 52006U 22025BC  22079.86239490  .00212868  28209-4  60620-3 0  9994
2 52006  53.2218  83.2756 0010105 268.5185  91.4686 15.92833386  1967
FALCON 9 DEB            
1 52007U 22025BD  22079.86020376  .00196087  25648-4  55316-3 0  9990
2 52007  53.2210  83.2583 0010399 251.9637 108.0259 15.93032842  1961
2022-026A               
1 52008U 22026A   22079.73423802 -.00000074  00000+0  00000+0 0  9996
2 52008  97.4874  80.8589 0046506 252.1263 107.4940 15.19138526   776
2022-026B               
1 52009U 22026B   22078.95955824 -.00000067  00000+0  00000+0 0  9996
2 52009  97.5026  80.0553 0026345 220.7927 139.1388 15.13622782   658
2022-026C               
1 52010U 22026C   22079.68691366 -.00000067  00000+0  00000+0 0  9997
2 52010  97.4916  80.7656 0024380 233.0559 126.8635 15.13576711   763
2022-026D               
1 52011U 22026D   22079.62087969 -.00000067  00000+0  00000+0 0  9990
2 52011  97.5059  80.7044 0026276 219.1811 140.7532 15.13543335   741
2022-026E               
1 52012U 22026E   22077.90186926 -.00000067  00000+0  00000+0 0  9993
2 52012  97.5032  79.0139 0025728 226.9273 132.9836 15.13601290   495
2022-026F               
1 52013U 22026F   22079.42235626 -.00000067  00000+0  00000+0 0  9995
2 52013  97.5026  80.5082 0027126 216.6779 143.2622 15.13611904   710
2022-026G               
1 52014U 22026G   22079.68677385 -.00000067  00000+0  00000+0 0  9996
2 52014  97.4992  80.7711 0026753 217.1771 142.7587 15.13617493   753
2022-026H               
1 52015U 22026H   22079.81894375 -.00000067  00000+0  00000+0 0  9992
2 52015  97.5025  80.9010 0026678 217.6598 142.2756 15.13633466   777
2022-026J               
1 52016U 22026J   22078.76120521 -.00000067  00000+0  00000+0 0  9991
2 52016  97.5031  79.8602 0026471 221.1628 138.7610 15.13636326   614
2022-026K               
1 52017U 22026K   22079.48839029 -.00000067  00000+0  00000+0 0  9992
2 52017  97.5022  80.5754 0026661 218.6286 141.3038 15.13637507   722
2022-026L               
1 52018U 22026L   22079.62062717 -.00000067  00000+0  00000+0 0  9991
2 52018  97.5030  80.7025 0026841 216.9084 143.0306 15.13628289   748
2022-026M               
1 52019U 22026M   22079.75283210 -.00000067  00000+0  00000+0 0  9999
2 52019  97.5021  80.8357 0026159 216.8971 143.0405 15.13632931   721
2022-026N               
1 52020U 22026N   22078.56288065 -.00000067  00000+0  00000+0 0  9992
2 52020  97.5025  79.6642 0025941 221.5629 138.3633 15.13632994   539
2022-026P               
1 52021U 22026P   22079.68670879 -.00000067  00000+0  00000+0 0  9995
2 52021  97.5038  80.7703 0026012 218.2017 141.7354 15.13638010   622
2022-026Q               
1 52022U 22026Q   22079.68670044 -.00000067  00000+0  00000+0 0  9990
2 52022  97.5032  80.7685 0025964 218.3170 141.6222 15.13640782   624
2022-026R               
1 52023U 22026R   22079.62058505 -.00000067  00000+0  00000+0 0  9997
2 52023  97.5062  80.7057 0025794 219.3566 140.5793 15.13643805   611
2022-026S               
1 52024U 22026S   22079.75279397 -.00000067  00000+0  00000+0 0  9996
2 52024  97.5044  80.8352 0026409 216.5302 143.4104 15.13645427   634
2022-026T               
1 52025U 22026T   22079.75278697 -.00000067  00000+0  00000+0 0  9999
2 52025  97.5044  80.8358 0026377 217.3606 142.5751 15.13647846   636
2022-026U               
1 52026U 22026U   22079.75275416 -.00000068  00000+0  00000+0 0  9997
2 52026  97.5083  80.8378 0029249 212.9572 147.0077 15.13662338   540
2022-026V               
1 52027U 22026V   22079.55445671 -.00000067  00000+0  00000+0 0  9997
2 52027  97.5033  80.6401 0026868 214.5211 145.4271 15.13650355   514
YAOGAN-34 02            
1 52084U 22027A   22079.69190369 -.00001126  00000+0 -17115-2 0  9993
2 52084  63.3972 221.0751 0012987 262.7972  97.0535 13.46725492   463
CZ-4C R/B               
1 52085U 22027B   22079.86425779 -.00000816  00000+0 -85472-3 0  9996
2 52085  63.3980 220.3211 0102213  42.5765 318.3154 13.65318289   494
SOYUZ-MS 21             
1 52086U 22028A   22079.41803262  .00003330  00000+0  67508-4 0  9999
2 52086  51.6433  56.2292 0004143 292.6640 204.6271 15.49469238331417
SL-4 R/B                
1 52087U 22028B   22080.05995561  .08846484  12485-4  45986-3 0  9999
2 52087  51.6479  51.6590 0006263  79.8755   4.7019 16.42454691   395
